[{"OBJECT_NAME":"STARLINK-5474","OBJECT_ID":"2023-021AP","EPOCH":"2026-03-09T16:14:51.371808","MEAN_MOTION":14.98330256,"ECCENTRICITY":0.00032851,"INCLINATION":70.001,"RA_OF_ASC_NODE":164.4503,"ARG_OF_PERICENTER":268.7907,"MEAN_ANOMALY":91.2876,"EPHEMERIS_TYPE":0,"CLASSIFICATION_TYPE":"U","NORAD_CAT_ID":55665,"ELEMENT_SET_NO":999,"REV_AT_EPOCH":16927,"BSTAR":-2.487955e-5,"MEAN_MOTION_DOT":-3.9e-6,"MEAN_MOTION_DDOT":0},{"OBJECT_NAME":"SITRO-AIS 17","OBJECT_ID":"2024-199BG","EPOCH":"2026-03-09T22:41:43.974240","MEAN_MOTION":14.97395626,"ECCENTRICITY":0.0007298,"INCLINATION":97.3319,"RA_OF_ASC_NODE":274.6922,"ARG_OF_PERICENTER":55.1829,"MEAN_ANOMALY":305.008,"EPHEMERIS_TYPE":0,"CLASSIFICATION_TYPE":"U","NORAD_CAT_ID":61789,"ELEMENT_SET_NO":999,"REV_AT_EPOCH":11718,"BSTAR":0.00028776531,"MEAN_MOTION_DOT":3.293e-5,"MEAN_MOTION_DDOT":0}]
